IRIDIUM 36              
1 24967U 97056C   24153.87203986  .00000655  00000+0  21540-3 0  9993
2 24967  86.3955 332.7267 0002170  93.7561 266.3884 14.36822710397591
IRIDIUM 39              
1 25042U 97069D   24154.15118874  .00000794  00000+0  20809-3 0  9996
2 25042  86.3934  13.9885 0019871 130.2669 230.0276 14.47974535394202
IRIDIUM 38              
1 25043U 97069E   24153.74509808  .00000523  00000+0  16892-3 0  9999
2 25043  86.3982  33.1520 0000411  86.9094 273.2150 14.37277871391558
IRIDIUM 42              
1 25077U 97077A   24153.77964298  .00000529  00000+0  17685-3 0  9993
2 25077  86.3986  38.8388 0001600  79.8591 280.2786 14.35577836386602
IRIDIUM 44              
1 25078U 97077B   24153.71167998  .00000582  00000+0  18071-3 0  9999
2 25078  86.3977  21.8184 0002325 135.5692 224.5694 14.39413012388987
IRIDIUM 45              
1 25104U 97082A   24153.70601730  .00009156  00000+0  51559-3 0  9995
2 25104  86.3771 229.5115 0157520 295.8044  62.7010 15.03030262394782
IRIDIUM 24              
1 25105U 97082B   24153.61078472  .00000685  00000+0  20628-3 0  9998
2 25105  86.3930 241.4602 0009445 250.6982 109.3196 14.41196070388389
IRIDIUM 51              
1 25262U 98018A   24153.74894962  .00014359  00000+0  67164-3 0  9995
2 25262  86.3974 239.3569 0144305 239.1714 119.5260 15.10752138389307
